<?xml version="1.0" encoding="UTF-8"?>
<kml xmlns="http://www.opengis.net/kml/2.2">
  <Document>
    <name>Saturfun — Brooklyn Itinerary</name>
    <description>67 venues across Flushing, Brooklyn &amp; Manhattan. Generated from itineraryData on 2026-05-16.</description>
    <Placemark>
      <name>Industry City Lot B (parking anchor)</name>
      <description><![CDATA[Free up to 4 hrs on weekends

5 min · $ · Industry City

Time slot: 9:00 AM — Morning Drive: Coffee on the Way

Notes: Enter at 2nd Ave between 36th &amp; 37th. Arrive before 11 AM to lock a spot before the brunch crowd.]]></description>
      <Point><coordinates>-74.0064,40.6586,0</coordinates></Point>
    </Placemark>
    <Placemark>
      <name>Tompkins Square Bagels (Bed-Stuy/Tompkins Ave outpost)</name>
      <description><![CDATA[Hand-rolled, plump, kettle-boiled bagels with a notable vegan cream cheese bench (chocolate chip cookie dough is real)

15-20 min · $ · Bed Stuy

Time slot: 9:00 AM — Morning Drive: Coffee on the Way

Notes: Counter service, fast. Skip if running tight on the 11:30 coffee block.]]></description>
      <Point><coordinates>-73.9395,40.6883,0</coordinates></Point>
    </Placemark>
    <Placemark>
      <name>Court Street Grocers (Carroll Gardens)</name>
      <description><![CDATA[Best breakfast sandwich in BK per multiple Eater lists

20 min · $$ · Carroll Gardens

Time slot: 9:00 AM — Morning Drive: Coffee on the Way

Notes: Order to-go and eat in the car if commuting straight through. Cash + card.]]></description>
      <Point><coordinates>-73.9986828,40.6762226,0</coordinates></Point>
    </Placemark>
    <Placemark>
      <name>Buona Sera Bagels (en-route on Atlantic)</name>
      <description><![CDATA[Underrated, no line, classic NYC bagel done right

15 min · $ · Cobble Hill

Time slot: 9:00 AM — Morning Drive: Coffee on the Way

Notes: Quick in/out. Pair with the IC arrival before lockers.]]></description>
      <Point><coordinates>-73.9851,40.6873,0</coordinates></Point>
    </Placemark>
    <Placemark>
      <name>Colson Patisserie</name>
      <description><![CDATA[Classic French-Belgian baked goods in a sunlit space.

30-45 min · $$ · Industry City

Time slot: 11:30 AM — Morning Checkpoint: Coffee &amp; Pastries]]></description>
      <Point><coordinates>-74.0077764,40.6566731,0</coordinates></Point>
    </Placemark>
    <Placemark>
      <name>Yafa Cafe</name>
      <description><![CDATA[Specializes in Yemeni pour-over coffees and cardamom lattes.

30-45 min · $ · Industry City

Time slot: 11:30 AM — Morning Checkpoint: Coffee &amp; Pastries]]></description>
      <Point><coordinates>-74.0095,40.6587,0</coordinates></Point>
    </Placemark>
    <Placemark>
      <name>Tadaima Coffee</name>
      <description><![CDATA[Hyper-photogenic Japanese-influenced minimalist café

30-45 min · $ · Sunset Park

Time slot: 11:30 AM — Morning Checkpoint: Coffee &amp; Pastries

Notes: Small space, can fill up. Best for the photo people in the group.]]></description>
      <Point><coordinates>-74.0089,40.6543,0</coordinates></Point>
    </Placemark>
    <Placemark>
      <name>City League Coffee Roasters</name>
      <description><![CDATA[Family-run specialty roaster at 6808 4th Ave hosting cupping classes + community events

30 min · $ · Sunset Park

Time slot: 11:30 AM — Morning Checkpoint: Coffee &amp; Pastries

Notes: Roaster on-site; ask what&apos;s freshest.]]></description>
      <Point><coordinates>-74.0099,40.6519,0</coordinates></Point>
    </Placemark>
    <Placemark>
      <name>Han Dynasty / Sip &amp; Co inside Industry City</name>
      <description><![CDATA[When you don&apos;t want to leave the IC anchor

30 min · $ · Industry City

Time slot: 11:30 AM — Morning Checkpoint: Coffee &amp; Pastries

Notes: Best fallback if Colson line is brutal or it&apos;s raining.]]></description>
      <Point><coordinates>-74.0089,40.6557,0</coordinates></Point>
    </Placemark>
    <Placemark>
      <name>Granitos Bakery</name>
      <description><![CDATA[Mexican-Latin pan dulce, conchas, tamales

20-30 min · $ · Sunset Park

Time slot: 11:30 AM — Morning Checkpoint: Coffee &amp; Pastries

Notes: Cash-friendly, takeout-oriented. Walk it back to IC.]]></description>
      <Point><coordinates>-74.0095,40.6464,0</coordinates></Point>
    </Placemark>
    <Placemark>
      <name>Black Flamingo Coffee</name>
      <description><![CDATA[Cool, music-leaning café aesthetic

30 min · $ · Sunset Park

Time slot: 11:30 AM — Morning Checkpoint: Coffee &amp; Pastries

Notes: Decent for slow-paced groups.]]></description>
      <Point><coordinates>-74.0083,40.6537,0</coordinates></Point>
    </Placemark>
    <Placemark>
      <name>Japan Village</name>
      <description><![CDATA[A sprawling marketplace that feels like Tokyo.

45-60 min · $$ · Industry City

Time slot: 12:30 PM — Early Afternoon: Art &amp; Anime]]></description>
      <Point><coordinates>-74.0093,40.6557,0</coordinates></Point>
    </Placemark>
    <Placemark>
      <name>BOOKOFF Ani-Lab</name>
      <description><![CDATA[Treasure trove for manga and Gachapon machines.

30-45 min · $ · Industry City

Time slot: 12:30 PM — Early Afternoon: Art &amp; Anime]]></description>
      <Point><coordinates>-74.0086,40.6557,0</coordinates></Point>
    </Placemark>
    <Placemark>
      <name>Makers Guild</name>
      <description><![CDATA[Open studios and murals perfect for sketching.

30 min · $ · Industry City

Time slot: 12:30 PM — Early Afternoon: Art &amp; Anime]]></description>
      <Point><coordinates>-74.0089,40.6557,0</coordinates></Point>
    </Placemark>
    <Placemark>
      <name>Smack Mellon</name>
      <description><![CDATA[Nonprofit DUMBO gallery in a converted Brooklyn Bridge-era warehouse

45-60 min · $ · Dumbo

Time slot: 12:30 PM — Early Afternoon: Art &amp; Anime

Notes: Pair with a Brooklyn Bridge Park sunset later — same zone.]]></description>
      <Point><coordinates>-73.987,40.7032,0</coordinates></Point>
    </Placemark>
    <Placemark>
      <name>Pioneer Works</name>
      <description><![CDATA[Cathedral-scale 25,000 sq ft former ironworks now hosting art + music + science residencies

1-2 hr · $ · Red Hook

Time slot: 12:30 PM — Early Afternoon: Art &amp; Anime

Notes: Saturdays often have free open studios + special events; worth checking the calendar.]]></description>
      <Point><coordinates>-74.0122249,40.6791304,0</coordinates></Point>
    </Placemark>
    <Placemark>
      <name>A.I.R. Gallery</name>
      <description><![CDATA[First all-women cooperative gallery in the U

30-45 min · $ · Dumbo

Time slot: 12:30 PM — Early Afternoon: Art &amp; Anime

Notes: Combine with Smack Mellon walking circuit.]]></description>
      <Point><coordinates>-73.987,40.7027,0</coordinates></Point>
    </Placemark>
    <Placemark>
      <name>Klompching Gallery</name>
      <description><![CDATA[Photography-only DUMBO gallery

30 min · $ · Dumbo

Time slot: 12:30 PM — Early Afternoon: Art &amp; Anime

Notes: Open Sat 12-6 typical.]]></description>
      <Point><coordinates>-73.9910512,40.703354,0</coordinates></Point>
    </Placemark>
    <Placemark>
      <name>Brooklyn Museum (stretch option)</name>
      <description><![CDATA[If group skews art-serious: Brooklyn Museum + Botanic Garden combo ticket is a legit half-day

1.5-2 hr · $ · Prospect Heights

Time slot: 12:30 PM — Early Afternoon: Art &amp; Anime

Notes: Heavy stop — would compress the rest of the day. Skip unless replacing the Gowanus block.]]></description>
      <Point><coordinates>-73.9636,40.6712,0</coordinates></Point>
    </Placemark>
    <Placemark>
      <name>Tacos El Bronco</name>
      <description><![CDATA[Massive haul of authentic homestyle Mexican tacos.

45-60 min · $ · Sunset Park

Time slot: 2:00 PM — Lunch Checkpoint: High-Protein &amp; Hidden Gems]]></description>
      <Point><coordinates>-74.0031399,40.6520994,0</coordinates></Point>
    </Placemark>
    <Placemark>
      <name>Ba Xuyên</name>
      <description><![CDATA[Some of the best Banh Mi in NYC, pair with avocado shake.

30-45 min · $ · Sunset Park

Time slot: 2:00 PM — Lunch Checkpoint: High-Protein &amp; Hidden Gems]]></description>
      <Point><coordinates>-73.9996777,40.6452843,0</coordinates></Point>
    </Placemark>
    <Placemark>
      <name>Hainan Chicken House</name>
      <description><![CDATA[Tender boiled Hainanese chicken and rice.

45 min · $ · Sunset Park

Time slot: 2:00 PM — Lunch Checkpoint: High-Protein &amp; Hidden Gems]]></description>
      <Point><coordinates>-74.0125,40.6404,0</coordinates></Point>
    </Placemark>
    <Placemark>
      <name>Kai Feng Fu</name>
      <description><![CDATA[Famous piping-hot pan-fried pork dumplings.

30-45 min · $ · Sunset Park

Time slot: 2:00 PM — Lunch Checkpoint: High-Protein &amp; Hidden Gems]]></description>
      <Point><coordinates>-74.0024442,40.6420418,0</coordinates></Point>
    </Placemark>
    <Placemark>
      <name>Sahadi&apos;s at Industry City</name>
      <description><![CDATA[The legendary Atlantic Ave Mediterranean grocer&apos;s IC outpost: open kitchen sajj sandwiches, mezze platters, Lebanese ...

45-60 min · $$ · Industry City

Time slot: 2:00 PM — Lunch Checkpoint: High-Protein &amp; Hidden Gems

Notes: Indoor + outdoor cafe seating, no reservation needed.]]></description>
      <Point><coordinates>-74.0093,40.6549,0</coordinates></Point>
    </Placemark>
    <Placemark>
      <name>Hometown Bar-B-Que (lunch alt)</name>
      <description><![CDATA[Already on existing dinner list

1 hr · $$ · Red Hook

Time slot: 2:00 PM — Lunch Checkpoint: High-Protein &amp; Hidden Gems

Notes: NOTE: only include if dropping it from the dinner block.]]></description>
      <Point><coordinates>-74.0161261,40.6749263,0</coordinates></Point>
    </Placemark>
    <Placemark>
      <name>Park Asia Dim Sum</name>
      <description><![CDATA[Cart dim sum at 6521 8th Ave, the highlight of Sunset Park&apos;s Chinatown

60-90 min · $$ · Sunset Park

Time slot: 2:00 PM — Lunch Checkpoint: High-Protein &amp; Hidden Gems

Notes: Get there by 2 PM at the latest — cart selection thins out fast.]]></description>
      <Point><coordinates>-74.0129,40.6383,0</coordinates></Point>
    </Placemark>
    <Placemark>
      <name>Yun Nan Flavour Garden</name>
      <description><![CDATA[Specialist in Yunnan crossing-bridge noodles

45 min · $ · Sunset Park

Time slot: 2:00 PM — Lunch Checkpoint: High-Protein &amp; Hidden Gems

Notes: Cash-leaning, small.]]></description>
      <Point><coordinates>-74.0119,40.6418,0</coordinates></Point>
    </Placemark>
    <Placemark>
      <name>Red Hook Tavern</name>
      <description><![CDATA[Bill Durney (Hometown BBQ) wood-paneled tavern

1 hr · $$$ · Red Hook

Time slot: 2:00 PM — Lunch Checkpoint: High-Protein &amp; Hidden Gems

Notes: Reservation strongly recommended. Pricier than other lunch options.]]></description>
      <Point><coordinates>-74.0120875,40.6778746,0</coordinates></Point>
    </Placemark>
    <Placemark>
      <name>Beat The Bomb</name>
      <description><![CDATA[Intense communication to defuse a giant paint bomb!

60-90 min · $$$ · Gowanus

Time slot: 3:30 PM — Afternoon Checkpoint: Analog Gaming &amp; Co-op]]></description>
      <Point><coordinates>-73.9836,40.6804,0</coordinates></Point>
    </Placemark>
    <Placemark>
      <name>Movement Gowanus</name>
      <description><![CDATA[Massive bouldering walls for a physical group challenge.

1.5-2 hr · $$ · Gowanus

Time slot: 3:30 PM — Afternoon Checkpoint: Analog Gaming &amp; Co-op]]></description>
      <Point><coordinates>-73.9854375,40.6814293,0</coordinates></Point>
    </Placemark>
    <Placemark>
      <name>Kick Axe Throwing</name>
      <description><![CDATA[Tactical sport perfect for learning a new physical skill.

60-90 min · $$ · Gowanus

Time slot: 3:30 PM — Afternoon Checkpoint: Analog Gaming &amp; Co-op]]></description>
      <Point><coordinates>-73.9858,40.673,0</coordinates></Point>
    </Placemark>
    <Placemark>
      <name>Brooklyn Game Knight</name>
      <description><![CDATA[A dedicated board game lounge back at Industry City.

1-2 hr · $ · Industry City

Time slot: 3:30 PM — Afternoon Checkpoint: Analog Gaming &amp; Co-op]]></description>
      <Point><coordinates>-74.0089,40.6557,0</coordinates></Point>
    </Placemark>
    <Placemark>
      <name>Carreau Club</name>
      <description><![CDATA[Conversational, competitive French pétanque on dirt courts.

60-90 min · $$ · Industry City

Time slot: 3:30 PM — Afternoon Checkpoint: Analog Gaming &amp; Co-op]]></description>
      <Point><coordinates>-74.0089,40.6557,0</coordinates></Point>
    </Placemark>
    <Placemark>
      <name>Melody Lanes</name>
      <description><![CDATA[A nostalgic, vintage bowling alley in Sunset Park.

1.5-2 hr · $ · Sunset Park

Time slot: 3:30 PM — Afternoon Checkpoint: Analog Gaming &amp; Co-op]]></description>
      <Point><coordinates>-74.0029537,40.6527916,0</coordinates></Point>
    </Placemark>
    <Placemark>
      <name>Other Half Brewing (Centre St)</name>
      <description><![CDATA[Brooklyn IPA legends

1-1.5 hr · $$ · Carroll Gardens

Time slot: 3:30 PM — Afternoon Checkpoint: Analog Gaming &amp; Co-op

Notes: Cash + card; no food made in-house but rotating trucks.]]></description>
      <Point><coordinates>-74.003,40.6766,0</coordinates></Point>
    </Placemark>
    <Placemark>
      <name>Threes Brewing (Gowanus)</name>
      <description><![CDATA[3,200 sq ft backyard, deep saison + lager program, frequent live events on Saturdays, hosts LA-style food residencies

1-1.5 hr · $$ · Gowanus

Time slot: 3:30 PM — Afternoon Checkpoint: Analog Gaming &amp; Co-op

Notes: Check events calendar — sometimes ticketed.]]></description>
      <Point><coordinates>-73.989,40.6766,0</coordinates></Point>
    </Placemark>
    <Placemark>
      <name>Smorgasburg Williamsburg (Saturday-only)</name>
      <description><![CDATA[Saturdays only Apr-Oct, 11 AM-6 PM at Marsha P

1.5-2 hr · $$ · Williamsburg

Time slot: 3:30 PM — Afternoon Checkpoint: Analog Gaming &amp; Co-op

Notes: Outdoor only — weather contingent. Could replace lunch entirely.]]></description>
      <Point><coordinates>-73.9622447,40.7209531,0</coordinates></Point>
    </Placemark>
    <Placemark>
      <name>Public Records</name>
      <description><![CDATA[Vinyl listening room + Sound Room music venue + plant-based cafe + nursery

1.5-2 hr · $$ · Gowanus

Time slot: 3:30 PM — Afternoon Checkpoint: Analog Gaming &amp; Co-op

Notes: Genuinely unique. The Atrium is daytime-friendly; UPSTAIRS opens evening.]]></description>
      <Point><coordinates>-73.9865223,40.6821013,0</coordinates></Point>
    </Placemark>
    <Placemark>
      <name>Brooklyn Boulders (Gowanus)</name>
      <description><![CDATA[Climbing gym alternative to Movement Gowanus if Movement is sold out

1.5 hr · $$ · Gowanus

Time slot: 3:30 PM — Afternoon Checkpoint: Analog Gaming &amp; Co-op

Notes: Reservation recommended Sat afternoon.]]></description>
      <Point><coordinates>-73.9892,40.6757,0</coordinates></Point>
    </Placemark>
    <Placemark>
      <name>Sunset Park (the actual park)</name>
      <description><![CDATA[The 164-ft hill is the highest point in Brooklyn

45-60 min · $ · Sunset Park

Time slot: 5:00 PM — Sunset Wander

Notes: Free, open dawn-dusk. Walk-up steep, plan footwear.]]></description>
      <Point><coordinates>-74.0011441,40.6601582,0</coordinates></Point>
    </Placemark>
    <Placemark>
      <name>Brooklyn Bridge Park — Pier 6 + Pier 2</name>
      <description><![CDATA[Volleyball at Pier 6 (drop-in 6am-11pm), basketball at Pier 2 (8am-9pm), Brooklyn Bridge framing the skyline

1-1.5 hr · $ · Brooklyn Heights

Time slot: 5:00 PM — Sunset Wander

Notes: Pier 6 has shaded courts; bring a ball if you want to play.]]></description>
      <Point><coordinates>-73.9991,40.6948,0</coordinates></Point>
    </Placemark>
    <Placemark>
      <name>Brooklyn Heights Promenade</name>
      <description><![CDATA[The Lower Manhattan + Brooklyn Bridge view that&apos;s been on every NYC postcard

30-45 min · $ · Brooklyn Heights

Time slot: 5:00 PM — Sunset Wander

Notes: Pair with a walk down to DUMBO via Squibb Park Bridge.]]></description>
      <Point><coordinates>-73.9973894,40.6973713,0</coordinates></Point>
    </Placemark>
    <Placemark>
      <name>Green-Wood Cemetery</name>
      <description><![CDATA[478 acres of Gothic-Revival Victorian cemetery / arboretum / hilltop city views

1-1.5 hr · $ · Sunset Park

Time slot: 5:00 PM — Sunset Wander

Notes: CLOSES AT 7 PM (Sunset Park entrance, 4th Ave &amp; 35th St). Get there 5 PM sharp for the full walk.]]></description>
      <Point><coordinates>-73.9931,40.6533,0</coordinates></Point>
    </Placemark>
    <Placemark>
      <name>Domino Park</name>
      <description><![CDATA[Quarter-mile waterfront on the East River with the Williamsburg Bridge frame and direct sunset over Manhattan

1 hr · $ · Williamsburg

Time slot: 5:00 PM — Sunset Wander

Notes: Open 6am-11pm. Best if dinner is also Williamsburg.]]></description>
      <Point><coordinates>-73.9676,40.7141,0</coordinates></Point>
    </Placemark>
    <Placemark>
      <name>Bush Terminal Piers Park</name>
      <description><![CDATA[Hidden post-industrial waterfront with restored tidal ponds, rock jetty, and a rare unobstructed Lower Manhattan view

30-45 min · $ · Sunset Park

Time slot: 5:00 PM — Sunset Wander

Notes: Closes 7 PM — early-pivot stop. Walking distance from IC.]]></description>
      <Point><coordinates>-74.0173,40.6498,0</coordinates></Point>
    </Placemark>
    <Placemark>
      <name>WakuWaku</name>
      <description><![CDATA[Vibrant dining that feels like an immersive anime set piece.

1-1.5 hr · $$ · Industry City

Time slot: 6:30 PM — Evening Checkpoint: Dinner &amp; Izakaya]]></description>
      <Point><coordinates>-74.0069707,40.6559905,0</coordinates></Point>
    </Placemark>
    <Placemark>
      <name>Hometown Bar-B-Que</name>
      <description><![CDATA[Slow-cooked massive BBQ platters perfect for sharing.

1-1.5 hr · $$ · Industry City

Time slot: 6:30 PM — Evening Checkpoint: Dinner &amp; Izakaya]]></description>
      <Point><coordinates>-74.0162,40.6748,0</coordinates></Point>
    </Placemark>
    <Placemark>
      <name>Lucali</name>
      <description><![CDATA[Famously the best pizza in NYC per multiple authoritative lists

1.5-2 hr · $$$ · Carroll Gardens

Time slot: 6:30 PM — Evening Checkpoint: Dinner &amp; Izakaya

Notes: NO RESERVATIONS — show up at 5 PM to put name on list. Cash only. CLOSED Tuesdays. Worth the friction once.]]></description>
      <Point><coordinates>-74.0003712,40.6818319,0</coordinates></Point>
    </Placemark>
    <Placemark>
      <name>Frankies 457 Spuntino</name>
      <description><![CDATA[The neighborhood Italian gold standard since 2004

1.5 hr · $$$ · Carroll Gardens

Time slot: 6:30 PM — Evening Checkpoint: Dinner &amp; Izakaya

Notes: Open 11am-10pm Sat. Reservation-friendly. Group-of-6 doable.]]></description>
      <Point><coordinates>-73.9981225,40.677395,0</coordinates></Point>
    </Placemark>
    <Placemark>
      <name>La Vara</name>
      <description><![CDATA[Eben &amp; Mary Beth Klemm&apos;s Andalusian Spanish

2 hr · $$$$ · Cobble Hill

Time slot: 6:30 PM — Evening Checkpoint: Dinner &amp; Izakaya

Notes: Reservation essential. Higher price point.]]></description>
      <Point><coordinates>-73.9956984,40.6877918,0</coordinates></Point>
    </Placemark>
    <Placemark>
      <name>Claro</name>
      <description><![CDATA[Michelin-starred Oaxacan

1.5-2 hr · $$$ · Gowanus

Time slot: 6:30 PM — Evening Checkpoint: Dinner &amp; Izakaya

Notes: Reservation mandatory. Spectacular for the photo brief.]]></description>
      <Point><coordinates>-73.9862272,40.6774174,0</coordinates></Point>
    </Placemark>
    <Placemark>
      <name>Lingo (Greenpoint)</name>
      <description><![CDATA[Japanese-American izakaya at 27 Greenpoint Ave

1.5 hr · $$$ · Greenpoint

Time slot: 6:30 PM — Evening Checkpoint: Dinner &amp; Izakaya

Notes: Only include if Sunset Wander was Domino Park.]]></description>
      <Point><coordinates>-73.9525,40.7239,0</coordinates></Point>
    </Placemark>
    <Placemark>
      <name>Saint Julivert Fisherie</name>
      <description><![CDATA[Seafood small-plates with weird wines program

2 hr · $$$$ · Cobble Hill

Time slot: 6:30 PM — Evening Checkpoint: Dinner &amp; Izakaya

Notes: Reservation essential. Smaller groups (2-4) only.]]></description>
      <Point><coordinates>-73.9956517,40.6878726,0</coordinates></Point>
    </Placemark>
    <Placemark>
      <name>Xin Fa Bakery</name>
      <description><![CDATA[Famous for huge, rich Portuguese egg tarts.

15-20 min · $ · Sunset Park

Time slot: 8:00 PM — Dessert Checkpoint: Sweet Treats]]></description>
      <Point><coordinates>-74.0073276,40.6372726,0</coordinates></Point>
    </Placemark>
    <Placemark>
      <name>Japan Village Food Hall</name>
      <description><![CDATA[Kakigori or Anko butter cup with ice cream.

20-30 min · $$ · Industry City

Time slot: 8:00 PM — Dessert Checkpoint: Sweet Treats]]></description>
      <Point><coordinates>-74.0093,40.6557,0</coordinates></Point>
    </Placemark>
    <Placemark>
      <name>Steve&apos;s Authentic Key Lime Pie</name>
      <description><![CDATA[Decades-old Red Hook waterfront institution

20-30 min · $ · Red Hook

Time slot: 8:00 PM — Dessert Checkpoint: Sweet Treats

Notes: Cash + card. Closes earlier than 8 PM most nights — verify same-day.]]></description>
      <Point><coordinates>-74.0148,40.6749,0</coordinates></Point>
    </Placemark>
    <Placemark>
      <name>Heap&apos;s Ice Cream</name>
      <description><![CDATA[Mango sticky rice, coffee toffee, caramel stroopwafel, passionfruit guava sorbet

20-30 min · $ · Park Slope

Time slot: 8:00 PM — Dessert Checkpoint: Sweet Treats

Notes: Open late on weekends.]]></description>
      <Point><coordinates>-73.9773381,40.671754,0</coordinates></Point>
    </Placemark>
    <Placemark>
      <name>Maman Cobble Hill</name>
      <description><![CDATA[French bakery / cafe

30 min · $$ · Cobble Hill

Time slot: 8:00 PM — Dessert Checkpoint: Sweet Treats

Notes: Verify Sat evening hours — cafes close earlier.]]></description>
      <Point><coordinates>-73.9966,40.6862,0</coordinates></Point>
    </Placemark>
    <Placemark>
      <name>Mia&apos;s Bakery</name>
      <description><![CDATA[Local-favorite croissant + tart shop

20 min · $ · Cobble Hill

Time slot: 8:00 PM — Dessert Checkpoint: Sweet Treats

Notes: Likely closes by 8 PM; an early dessert stop.]]></description>
      <Point><coordinates>-73.9947,40.6855,0</coordinates></Point>
    </Placemark>
    <Placemark>
      <name>Sunken Harbor Club</name>
      <description><![CDATA[Tiki-fine-dining cocktail bar tucked above the historic Gage &amp; Tollner room

1.5-2 hr · $$$ · Brooklyn Heights

Time slot: 10:00 PM — Late Night

Notes: WALK-IN ONLY, first-come first-served, 21+ after 7 PM. Sat 5pm-12am. Arrive by 9:30 PM to lock seats.]]></description>
      <Point><coordinates>-73.9926,40.7011,0</coordinates></Point>
    </Placemark>
    <Placemark>
      <name>Sunny&apos;s Bar</name>
      <description><![CDATA[1890 Red Hook saloon

1.5-2 hr · $$ · Red Hook

Time slot: 10:00 PM — Late Night

Notes: Cash-leaning. Loud-warm vibe; not a &quot;hear yourself talk&quot; bar.]]></description>
      <Point><coordinates>-74.0179,40.6772,0</coordinates></Point>
    </Placemark>
    <Placemark>
      <name>Maison Premiere</name>
      <description><![CDATA[Largest absinthe list in the U

1.5-2 hr · $$$ · Williamsburg

Time slot: 10:00 PM — Late Night

Notes: Reservation strongly recommended via Resy. Saturdays slammed without one.]]></description>
      <Point><coordinates>-73.9616034,40.7142409,0</coordinates></Point>
    </Placemark>
    <Placemark>
      <name>Hotel Delmano</name>
      <description><![CDATA[Vintage speakeasy aesthetic at 82 Berry St

1.5 hr · $$$ · Williamsburg

Time slot: 10:00 PM — Late Night

Notes: Walk-in friendly midweek; Saturdays expect a wait.]]></description>
      <Point><coordinates>-73.9580192,40.7197084,0</coordinates></Point>
    </Placemark>
    <Placemark>
      <name>Royal Palms Shuffleboard Club</name>
      <description><![CDATA[10 shuffleboard courts in a Floridian-themed warehouse

1.5-2 hr · $$ · Gowanus

Time slot: 10:00 PM — Late Night

Notes: Reservation smart for groups 4+ on Saturdays.]]></description>
      <Point><coordinates>-73.9868491,40.6787406,0</coordinates></Point>
    </Placemark>
    <Placemark>
      <name>The Bell House</name>
      <description><![CDATA[Comedy + live podcast taping + indie shows nightly

2 hr · $$ · Gowanus

Time slot: 10:00 PM — Late Night

Notes: Ticketed shows — book ahead and check what&apos;s on.]]></description>
      <Point><coordinates>-73.9885,40.673,0</coordinates></Point>
    </Placemark>
    <Placemark>
      <name>The Long Island Bar</name>
      <description><![CDATA[Restored 1950s diner-bar aesthetic, gimlet program is destination-worthy, Toby Cecchini&apos;s bar

1.5 hr · $$$ · Cobble Hill

Time slot: 10:00 PM — Late Night

Notes: Walk-in. Smaller — not ideal for 6+ groups.]]></description>
      <Point><coordinates>-73.9964304,40.6906369,0</coordinates></Point>
    </Placemark>
    <Placemark>
      <name>Insa</name>
      <description><![CDATA[Korean BBQ + private karaoke rooms (KTV)

2-3 hr · $$$ · Gowanus

Time slot: 10:00 PM — Late Night

Notes: Karaoke rooms book up — reserve in advance.]]></description>
      <Point><coordinates>-73.9866,40.676,0</coordinates></Point>
    </Placemark>
  </Document>
</kml>
